{
    "links": {
        "self": "http://www.neowsapp.com/rest/v1/neo/3179362?api_key=iIulBulltgU6a56xZRHN4H3l9WmuAYTsLGpBGhQ2"
    },
    "id": "3179362",
    "neo_reference_id": "3179362",
    "name": "(2004 HB)",
    "designation": "2004 HB",
    "nasa_jpl_url": "http://ssd.jpl.nasa.gov/sbdb.cgi?sstr=3179362",
    "absolute_magnitude_h": 23.9,
    "estimated_diameter": {
        "kilometers": {
            "estimated_diameter_min": 0.04411182,
            "estimated_diameter_max": 0.0986370281
        },
        "meters": {
            "estimated_diameter_min": 44.1118199997,
            "estimated_diameter_max": 98.6370281305
        },
        "miles": {
            "estimated_diameter_min": 0.0274098057,
            "estimated_diameter_max": 0.0612901888
        },
        "feet": {
            "estimated_diameter_min": 144.7238235278,
            "estimated_diameter_max": 323.6123073718
        }
    },
    "is_potentially_hazardous_asteroid": false,
    "close_approach_data": [
        {
            "close_approach_date": "2004-04-21",
            "close_approach_date_full": "2004-Apr-21 00:04",
            "epoch_date_close_approach": 1082505840000,
            "relative_velocity": {
                "kilometers_per_second": "10.2331357414",
                "kilometers_per_hour": "36839.2886690267",
                "miles_per_hour": "22890.5013399294"
            },
            "miss_distance": {
                "astronomical": "0.0262927365",
                "lunar": "10.2278744985",
                "kilometers": "3933337.376871255",
                "miles": "2444062.513303119"
            },
            "orbiting_body": "Earth"
        }
    ],
    "orbital_data": {
        "orbit_id": "8",
        "orbit_determination_date": "2017-04-06 09:12:55",
        "first_observation_date": "2004-04-16",
        "last_observation_date": "2004-04-18",
        "data_arc_in_days": 2,
        "observations_used": 22,
        "orbit_uncertainty": "8",
        "minimum_orbit_intersection": ".021529",
        "jupiter_tisserand_invariant": "3.275",
        "epoch_osculation": "2453112.5",
        "eccentricity": ".5863312446669695",
        "semi_major_axis": "2.373213475259897",
        "inclination": "8.431600745838539",
        "ascending_node_longitude": "21.85858777885888",
        "orbital_period": "1335.376211184983",
        "perihelion_distance": ".9817242644503373",
        "perihelion_argument": "211.7554633782318",
        "aphelion_distance": "3.764702686069457",
        "perihelion_time": "2453134.914498889409",
        "mean_anomaly": "353.9573436065431",
        "mean_motion": ".269586950092921",
        "equinox": "J2000",
        "orbit_class": {
            "orbit_class_type": "APO",
            "orbit_class_description": "Near-Earth asteroid orbits which cross the Earth’s orbit similar to that of 1862 Apollo",
            "orbit_class_range": "a (semi-major axis) > 1.0 AU; q (perihelion) < 1.017 AU"
        }
    },
    "is_sentry_object": false
}